[{"OBJECT_NAME":"STARLINK-11558 [DTC]","OBJECT_ID":"2025-035D","EPOCH":"2025-08-24T01:26:00.952800","MEAN_MOTION":15.70910103,"ECCENTRICITY":0.00030799,"INCLINATION":43.0035,"RA_OF_ASC_NODE":126.1608,"ARG_OF_PERICENTER":275.894,"MEAN_ANOMALY":84.1577,"EPHEMERIS_TYPE":0,"CLASSIFICATION_TYPE":"U","NORAD_CAT_ID":63055,"ELEMENT_SET_NO":999,"REV_AT_EPOCH":3003,"BSTAR":0.0013319283,"MEAN_MOTION_DOT":0.00174626,"MEAN_MOTION_DDOT":0},{"OBJECT_NAME":"STARLINK-11392 [DTC]","OBJECT_ID":"2025-035E","EPOCH":"2025-08-24T00:55:37.496352","MEAN_MOTION":15.70936187,"ECCENTRICITY":0.00027852,"INCLINATION":43.0018,"RA_OF_ASC_NODE":126.883,"ARG_OF_PERICENTER":263.0606,"MEAN_ANOMALY":96.9945,"EPHEMERIS_TYPE":0,"CLASSIFICATION_TYPE":"U","NORAD_CAT_ID":63056,"ELEMENT_SET_NO":999,"REV_AT_EPOCH":3013,"BSTAR":0.0021119813,"MEAN_MOTION_DOT":0.00281056,"MEAN_MOTION_DDOT":0},{"OBJECT_NAME":"STARLINK-11406 [DTC]","OBJECT_ID":"2025-035F","EPOCH":"2025-08-24T09:42:02.930976","MEAN_MOTION":15.70878956,"ECCENTRICITY":0.00015404,"INCLINATION":42.9987,"RA_OF_ASC_NODE":124.4548,"ARG_OF_PERICENTER":274.7316,"MEAN_ANOMALY":85.3376,"EPHEMERIS_TYPE":0,"CLASSIFICATION_TYPE":"U","NORAD_CAT_ID":63057,"ELEMENT_SET_NO":999,"REV_AT_EPOCH":3007,"BSTAR":0.0012881599,"MEAN_MOTION_DOT":0.00168509,"MEAN_MOTION_DDOT":0},{"OBJECT_NAME":"STARLINK-11418 [DTC]","OBJECT_ID":"2025-035G","EPOCH":"2025-08-24T01:18:33.629760","MEAN_MOTION":15.708437,"ECCENTRICITY":0.00017157,"INCLINATION":42.9996,"RA_OF_ASC_NODE":127.0115,"ARG_OF_PERICENTER":270.1396,"MEAN_ANOMALY":89.9275,"EPHEMERIS_TYPE":0,"CLASSIFICATION_TYPE":"U","NORAD_CAT_ID":63058,"ELEMENT_SET_NO":999,"REV_AT_EPOCH":3001,"BSTAR":0.0013603857,"MEAN_MOTION_DOT":0.00177922,"MEAN_MOTION_DDOT":0},{"OBJECT_NAME":"STARLINK-11509 [DTC]","OBJECT_ID":"2025-035H","EPOCH":"2025-08-24T02:34:49.562112","MEAN_MOTION":15.70872923,"ECCENTRICITY":0.00016179,"INCLINATION":43.0004,"RA_OF_ASC_NODE":126.5418,"ARG_OF_PERICENTER":270.5485,"MEAN_ANOMALY":89.5197,"EPHEMERIS_TYPE":0,"CLASSIFICATION_TYPE":"U","NORAD_CAT_ID":63059,"ELEMENT_SET_NO":999,"REV_AT_EPOCH":3002,"BSTAR":0.0010062005,"MEAN_MOTION_DOT":0.00130894,"MEAN_MOTION_DDOT":0},{"OBJECT_NAME":"STARLINK-11403 [DTC]","OBJECT_ID":"2025-035J","EPOCH":"2025-08-24T09:57:20.409120","MEAN_MOTION":15.70896162,"ECCENTRICITY":0.00014468,"INCLINATION":42.9991,"RA_OF_ASC_NODE":124.5384,"ARG_OF_PERICENTER":273.6327,"MEAN_ANOMALY":86.4375,"EPHEMERIS_TYPE":0,"CLASSIFICATION_TYPE":"U","NORAD_CAT_ID":63060,"ELEMENT_SET_NO":999,"REV_AT_EPOCH":3019,"BSTAR":0.0016002548,"MEAN_MOTION_DOT":0.0021067,"MEAN_MOTION_DDOT":0},{"OBJECT_NAME":"STARLINK-11409 [DTC]","OBJECT_ID":"2025-035K","EPOCH":"2025-08-24T02:28:29.739072","MEAN_MOTION":15.70877808,"ECCENTRICITY":0.00015581,"INCLINATION":43.0008,"RA_OF_ASC_NODE":126.5043,"ARG_OF_PERICENTER":276.0313,"MEAN_ANOMALY":84.0377,"EPHEMERIS_TYPE":0,"CLASSIFICATION_TYPE":"U","NORAD_CAT_ID":63061,"ELEMENT_SET_NO":999,"REV_AT_EPOCH":3014,"BSTAR":0.0010614644,"MEAN_MOTION_DOT":0.00138259,"MEAN_MOTION_DDOT":0},{"OBJECT_NAME":"STARLINK-11412 [DTC]","OBJECT_ID":"2025-035L","EPOCH":"2025-08-24T09:49:42.279168","MEAN_MOTION":15.70869497,"ECCENTRICITY":4.853e-5,"INCLINATION":42.999,"RA_OF_ASC_NODE":124.4945,"ARG_OF_PERICENTER":3.5879,"MEAN_ANOMALY":356.4992,"EPHEMERIS_TYPE":0,"CLASSIFICATION_TYPE":"U","NORAD_CAT_ID":63062,"ELEMENT_SET_NO":999,"REV_AT_EPOCH":3019,"BSTAR":0.0013785246,"MEAN_MOTION_DOT":0.00180554,"MEAN_MOTION_DDOT":0},{"OBJECT_NAME":"STARLINK-11399 [DTC]","OBJECT_ID":"2025-035M","EPOCH":"2025-08-24T09:19:06.826944","MEAN_MOTION":15.70880219,"ECCENTRICITY":0.00011078,"INCLINATION":43.0005,"RA_OF_ASC_NODE":124.3221,"ARG_OF_PERICENTER":286.0873,"MEAN_ANOMALY":73.9873,"EPHEMERIS_TYPE":0,"CLASSIFICATION_TYPE":"U","NORAD_CAT_ID":63063,"ELEMENT_SET_NO":999,"REV_AT_EPOCH":3019,"BSTAR":0.0014464354,"MEAN_MOTION_DOT":0.00189766,"MEAN_MOTION_DDOT":0},{"OBJECT_NAME":"STARLINK-11408 [DTC]","OBJECT_ID":"2025-035N","EPOCH":"2025-08-24T09:11:28.257216","MEAN_MOTION":15.70889705,"ECCENTRICITY":9.407e-5,"INCLINATION":43.0011,"RA_OF_ASC_NODE":124.2798,"ARG_OF_PERICENTER":285.3167,"MEAN_ANOMALY":74.7597,"EPHEMERIS_TYPE":0,"CLASSIFICATION_TYPE":"U","NORAD_CAT_ID":63064,"ELEMENT_SET_NO":999,"REV_AT_EPOCH":3019,"BSTAR":0.0017014527,"MEAN_MOTION_DOT":0.00224333,"MEAN_MOTION_DDOT":0},{"OBJECT_NAME":"STARLINK-33635","OBJECT_ID":"2025-035P","EPOCH":"2025-08-24T13:45:01.045728","MEAN_MOTION":15.27591715,"ECCENTRICITY":0.00018364,"INCLINATION":43.0052,"RA_OF_ASC_NODE":180.2618,"ARG_OF_PERICENTER":267.0815,"MEAN_ANOMALY":92.9827,"EPHEMERIS_TYPE":0,"CLASSIFICATION_TYPE":"U","NORAD_CAT_ID":63065,"ELEMENT_SET_NO":999,"REV_AT_EPOCH":2958,"BSTAR":0.00056803857,"MEAN_MOTION_DOT":0.00015407,"MEAN_MOTION_DDOT":0},{"OBJECT_NAME":"STARLINK-33622","OBJECT_ID":"2025-035Q","EPOCH":"2025-08-24T13:19:07.979808","MEAN_MOTION":15.2757605,"ECCENTRICITY":0.00012236,"INCLINATION":43.0033,"RA_OF_ASC_NODE":180.1164,"ARG_OF_PERICENTER":254.4252,"MEAN_ANOMALY":105.6465,"EPHEMERIS_TYPE":0,"CLASSIFICATION_TYPE":"U","NORAD_CAT_ID":63066,"ELEMENT_SET_NO":999,"REV_AT_EPOCH":2958,"BSTAR":0.00065357682,"MEAN_MOTION_DOT":0.00017764,"MEAN_MOTION_DDOT":0},{"OBJECT_NAME":"STARLINK-33628","OBJECT_ID":"2025-035R","EPOCH":"2025-08-24T06:20:08.366208","MEAN_MOTION":15.27596622,"ECCENTRICITY":0.00016844,"INCLINATION":43.0014,"RA_OF_ASC_NODE":182.239,"ARG_OF_PERICENTER":267.1689,"MEAN_ANOMALY":92.897,"EPHEMERIS_TYPE":0,"CLASSIFICATION_TYPE":"U","NORAD_CAT_ID":63067,"ELEMENT_SET_NO":999,"REV_AT_EPOCH":2953,"BSTAR":0.00073765353,"MEAN_MOTION_DOT":0.00020102,"MEAN_MOTION_DDOT":0},{"OBJECT_NAME":"STARLINK-33627","OBJECT_ID":"2025-035S","EPOCH":"2025-08-23T23:52:25.941216","MEAN_MOTION":15.27560583,"ECCENTRICITY":0.00013896,"INCLINATION":43.0004,"RA_OF_ASC_NODE":183.6575,"ARG_OF_PERICENTER":261.2211,"MEAN_ANOMALY":98.8483,"EPHEMERIS_TYPE":0,"CLASSIFICATION_TYPE":"U","NORAD_CAT_ID":63068,"ELEMENT_SET_NO":999,"REV_AT_EPOCH":2948,"BSTAR":0.00013282261,"MEAN_MOTION_DOT":3.392e-5,"MEAN_MOTION_DDOT":0},{"OBJECT_NAME":"STARLINK-33620","OBJECT_ID":"2025-035T","EPOCH":"2025-08-23T23:46:51.665664","MEAN_MOTION":15.27592703,"ECCENTRICITY":0.00014918,"INCLINATION":43.0024,"RA_OF_ASC_NODE":183.6314,"ARG_OF_PERICENTER":276.1854,"MEAN_ANOMALY":83.8828,"EPHEMERIS_TYPE":0,"CLASSIFICATION_TYPE":"U","NORAD_CAT_ID":63069,"ELEMENT_SET_NO":999,"REV_AT_EPOCH":2948,"BSTAR":0.00031739264,"MEAN_MOTION_DOT":8.485e-5,"MEAN_MOTION_DDOT":0},{"OBJECT_NAME":"STARLINK-33604","OBJECT_ID":"2025-035U","EPOCH":"2025-08-24T12:57:07.824960","MEAN_MOTION":15.27582093,"ECCENTRICITY":2.933e-5,"INCLINATION":42.996,"RA_OF_ASC_NODE":180.8724,"ARG_OF_PERICENTER":18.0154,"MEAN_ANOMALY":342.0708,"EPHEMERIS_TYPE":0,"CLASSIFICATION_TYPE":"U","NORAD_CAT_ID":63070,"ELEMENT_SET_NO":999,"REV_AT_EPOCH":2956,"BSTAR":0.00032865482,"MEAN_MOTION_DOT":8.793e-5,"MEAN_MOTION_DDOT":0},{"OBJECT_NAME":"STARLINK-33624","OBJECT_ID":"2025-035V","EPOCH":"2025-08-24T12:37:27.794496","MEAN_MOTION":15.27576677,"ECCENTRICITY":0.00012534,"INCLINATION":43.0001,"RA_OF_ASC_NODE":177.2955,"ARG_OF_PERICENTER":269.8955,"MEAN_ANOMALY":90.1753,"EPHEMERIS_TYPE":0,"CLASSIFICATION_TYPE":"U","NORAD_CAT_ID":63071,"ELEMENT_SET_NO":999,"REV_AT_EPOCH":2950,"BSTAR":0.00066923593,"MEAN_MOTION_DOT":0.00018197,"MEAN_MOTION_DDOT":0},{"OBJECT_NAME":"STARLINK-33623","OBJECT_ID":"2025-035W","EPOCH":"2025-08-24T06:31:14.680416","MEAN_MOTION":15.2759461,"ECCENTRICITY":0.00010094,"INCLINATION":42.9996,"RA_OF_ASC_NODE":182.2975,"ARG_OF_PERICENTER":275.0025,"MEAN_ANOMALY":85.0712,"EPHEMERIS_TYPE":0,"CLASSIFICATION_TYPE":"U","NORAD_CAT_ID":63072,"ELEMENT_SET_NO":999,"REV_AT_EPOCH":2953,"BSTAR":0.00091469619,"MEAN_MOTION_DOT":0.00025005,"MEAN_MOTION_DDOT":0},{"OBJECT_NAME":"STARLINK-33586","OBJECT_ID":"2025-035X","EPOCH":"2025-08-24T05:40:49.177056","MEAN_MOTION":15.27595542,"ECCENTRICITY":0.00013698,"INCLINATION":43.0025,"RA_OF_ASC_NODE":175.098,"ARG_OF_PERICENTER":276.8383,"MEAN_ANOMALY":83.2313,"EPHEMERIS_TYPE":0,"CLASSIFICATION_TYPE":"U","NORAD_CAT_ID":63073,"ELEMENT_SET_NO":999,"REV_AT_EPOCH":2961,"BSTAR":0.00051535483,"MEAN_MOTION_DOT":0.00013953,"MEAN_MOTION_DDOT":0},{"OBJECT_NAME":"STARLINK-33605","OBJECT_ID":"2025-035Y","EPOCH":"2025-08-24T13:28:22.005120","MEAN_MOTION":15.27590105,"ECCENTRICITY":3.493e-5,"INCLINATION":42.9995,"RA_OF_ASC_NODE":180.165,"ARG_OF_PERICENTER":315.2962,"MEAN_ANOMALY":44.7861,"EPHEMERIS_TYPE":0,"CLASSIFICATION_TYPE":"U","NORAD_CAT_ID":63074,"ELEMENT_SET_NO":999,"REV_AT_EPOCH":2957,"BSTAR":0.00048601164,"MEAN_MOTION_DOT":0.0001314,"MEAN_MOTION_DDOT":0},{"OBJECT_NAME":"STARLINK-32839","OBJECT_ID":"2025-037A","EPOCH":"2025-08-24T04:07:48.808416","MEAN_MOTION":14.98315424,"ECCENTRICITY":0.00026536,"INCLINATION":70.0016,"RA_OF_ASC_NODE":132.5599,"ARG_OF_PERICENTER":267.9049,"MEAN_ANOMALY":92.1806,"EPHEMERIS_TYPE":0,"CLASSIFICATION_TYPE":"U","NORAD_CAT_ID":63077,"ELEMENT_SET_NO":999,"REV_AT_EPOCH":2900,"BSTAR":-7.258941e-5,"MEAN_MOTION_DOT":-9.59e-6,"MEAN_MOTION_DDOT":0},{"OBJECT_NAME":"STARLINK-32821","OBJECT_ID":"2025-037B","EPOCH":"2025-08-24T04:07:32.808864","MEAN_MOTION":14.98338195,"ECCENTRICITY":0.00026751,"INCLINATION":70.0016,"RA_OF_ASC_NODE":132.5543,"ARG_OF_PERICENTER":269.5963,"MEAN_ANOMALY":90.489,"EPHEMERIS_TYPE":0,"CLASSIFICATION_TYPE":"U","NORAD_CAT_ID":63078,"ELEMENT_SET_NO":999,"REV_AT_EPOCH":2900,"BSTAR":0.00026812815,"MEAN_MOTION_DOT":3.108e-5,"MEAN_MOTION_DDOT":0},{"OBJECT_NAME":"STARLINK-32817","OBJECT_ID":"2025-037C","EPOCH":"2025-08-24T09:50:00.586464","MEAN_MOTION":14.98336962,"ECCENTRICITY":0.00027559,"INCLINATION":70.0023,"RA_OF_ASC_NODE":131.7779,"ARG_OF_PERICENTER":270.4552,"MEAN_ANOMALY":89.6292,"EPHEMERIS_TYPE":0,"CLASSIFICATION_TYPE":"U","NORAD_CAT_ID":63079,"ELEMENT_SET_NO":999,"REV_AT_EPOCH":2904,"BSTAR":0.00020239494,"MEAN_MOTION_DOT":2.323e-5,"MEAN_MOTION_DDOT":0}]
